{
  "type": "FeatureCollection",
  "features": [
    {
      "type": "Feature",
      "properties": {
        "norad_id": 30066,
        "name": "FENGYUN 1C DEB",
        "group": "fengyun-1c-debris",
        "lat": 0.7859864244704903,
        "lon": -20.878974962754707,
        "alt_km": 852.2680332008313,
        "timestamp": "2025-12-14T20:40:32.045216+00:00",
        "meta_object_name": "FENGYUN 1C DEB",
        "meta_object_id": "1999-025PT",
        "meta_epoch": "2025-12-14T05:45:38.183328",
        "meta_mean_motion": 14.19110833,
        "meta_eccentricity": 0.01166938,
        "meta_inclination": 98.6343,
        "meta_ra_of_asc_node": 338.6349,
        "meta_arg_of_pericenter": 257.5312,
        "meta_mean_anomaly": 168.9812,
        "meta_ephemeris_type": 0,
        "meta_classification_type": "U",
        "meta_norad_cat_id": 30066,
        "meta_element_set_no": 999,
        "meta_rev_at_epoch": 97858,
        "meta_bstar": 0.00022340078,
        "meta_mean_motion_dot": 4.56e-06,
        "meta_mean_motion_ddot": 0,
        "tle_line1": "1 30066U 99025PT  25348.24002527  .00000456  00000+0  22340-3 0  9992",
        "tle_line2": "2 30066  98.6343 338.6349 0116693 257.5312 168.9812 14.19110833978580"
      },
      "geometry": {
        "type": "Point",
        "coordinates": [
          -20.878974962754707,
          0.7859864244704903
        ]
      }
    },
    {
      "type": "Feature",
      "properties": {
        "norad_id": 30067,
        "name": "FENGYUN 1C DEB",
        "group": "fengyun-1c-debris",
        "lat": 66.57495071104448,
        "lon": 75.87007494244018,
        "alt_km": 756.9545593141675,
        "timestamp": "2025-12-14T20:40:32.045227+00:00",
        "meta_object_name": "FENGYUN 1C DEB",
        "meta_object_id": "1999-025PU",
        "meta_epoch": "2025-12-14T07:24:05.334048",
        "meta_mean_motion": 14.43692821,
        "meta_eccentricity": 0.01517917,
        "meta_inclination": 98.7655,
        "meta_ra_of_asc_node": 234.4384,
        "meta_arg_of_pericenter": 13.4363,
        "meta_mean_anomaly": 103.7111,
        "meta_ephemeris_type": 0,
        "meta_classification_type": "U",
        "meta_norad_cat_id": 30067,
        "meta_element_set_no": 999,
        "meta_rev_at_epoch": 99221,
        "meta_bstar": 0.00050031512,
        "meta_mean_motion_dot": 1.901e-05,
        "meta_mean_motion_ddot": 0,
        "tle_line1": "1 30067U 99025PU  25348.30839507  .00001901  00000+0  50032-3 0  9991",
        "tle_line2": "2 30067  98.7655 234.4384 0151791  13.4363 103.7111 14.43692821992217"
      },
      "geometry": {
        "type": "Point",
        "coordinates": [
          75.87007494244018,
          66.57495071104448
        ]
      }
    },
    {
      "type": "Feature",
      "properties": {
        "norad_id": 30068,
        "name": "FENGYUN 1C DEB",
        "group": "fengyun-1c-debris",
        "lat": 68.08931404359545,
        "lon": 179.09401374975164,
        "alt_km": 927.308588097284,
        "timestamp": "2025-12-14T20:40:32.045237+00:00",
        "meta_object_name": "FENGYUN 1C DEB",
        "meta_object_id": "1999-025PV",
        "meta_epoch": "2025-12-13T22:03:13.113792",
        "meta_mean_motion": 14.12048837,
        "meta_eccentricity": 0.01899261,
        "meta_inclination": 98.7365,
        "meta_ra_of_asc_node": 335.6982,
        "meta_arg_of_pericenter": 345.494,
        "meta_mean_anomaly": 14.0825,
        "meta_ephemeris_type": 0,
        "meta_classification_type": "U",
        "meta_norad_cat_id": 30068,
        "meta_element_set_no": 999,
        "meta_rev_at_epoch": 97360,
        "meta_bstar": 0.00027822115,
        "meta_mean_motion_dot": 5.6e-06,
        "meta_mean_motion_ddot": 0,
        "tle_line1": "1 30068U 99025PV  25347.91890178  .00000560  00000+0  27822-3 0  9990",
        "tle_line2": "2 30068  98.7365 335.6982 0189926 345.4940  14.0825 14.12048837973600"
      },
      "geometry": {
        "type": "Point",
        "coordinates": [
          179.09401374975164,
          68.08931404359545
        ]
      }
    },
    {
      "type": "Feature",
      "properties": {
        "norad_id": 30069,
        "name": "FENGYUN 1C DEB",
        "group": "fengyun-1c-debris",
        "lat": 40.26044111378503,
        "lon": 158.18614785702204,
        "alt_km": 873.5120821508681,
        "timestamp": "2025-12-14T20:40:32.045248+00:00",
        "meta_object_name": "FENGYUN 1C DEB",
        "meta_object_id": "1999-025PW",
        "meta_epoch": "2025-12-14T04:42:49.709088",
        "meta_mean_motion": 14.05224499,
        "meta_eccentricity": 0.00498404,
        "meta_inclination": 98.801,
        "meta_ra_of_asc_node": 330.0018,
        "meta_arg_of_pericenter": 49.127,
        "meta_mean_anomaly": 326.7632,
        "meta_ephemeris_type": 0,
        "meta_classification_type": "U",
        "meta_norad_cat_id": 30069,
        "meta_element_set_no": 999,
        "meta_rev_at_epoch": 96867,
        "meta_bstar": 0.00028769077,
        "meta_mean_motion_dot": 4.28e-06,
        "meta_mean_motion_ddot": 0,
        "tle_line1": "1 30069U 99025PW  25348.19640867  .00000428  00000+0  28769-3 0  9994",
        "tle_line2": "2 30069  98.8010 330.0018 0049840  49.1270 326.7632 14.05224499968674"
      },
      "geometry": {
        "type": "Point",
        "coordinates": [
          158.18614785702204,
          40.26044111378503
        ]
      }
    },
    {
      "type": "Feature",
      "properties": {
        "norad_id": 30070,
        "name": "FENGYUN 1C DEB",
        "group": "fengyun-1c-debris",
        "lat": -34.98638746755679,
        "lon": 54.185227734906896,
        "alt_km": 633.0679665901544,
        "timestamp": "2025-12-14T20:40:32.045258+00:00",
        "meta_object_name": "FENGYUN 1C DEB",
        "meta_object_id": "1999-025PX",
        "meta_epoch": "2025-12-14T03:54:43.326144",
        "meta_mean_motion": 14.09927349,
        "meta_eccentricity": 0.03280473,
        "meta_inclination": 98.2867,
        "meta_ra_of_asc_node": 47.6863,
        "meta_arg_of_pericenter": 314.871,
        "meta_mean_anomaly": 65.7622,
        "meta_ephemeris_type": 0,
        "meta_classification_type": "U",
        "meta_norad_cat_id": 30070,
        "meta_element_set_no": 999,
        "meta_rev_at_epoch": 95899,
        "meta_bstar": 0.0017796201,
        "meta_mean_motion_dot": 5.134e-05,
        "meta_mean_motion_ddot": 0,
        "tle_line1": "1 30070U 99025PX  25348.16300146  .00005134  00000+0  17796-2 0  9992",
        "tle_line2": "2 30070  98.2867  47.6863 0328047 314.8710  65.7622 14.09927349958990"
      },
      "geometry": {
        "type": "Point",
        "coordinates": [
          54.185227734906896,
          -34.98638746755679
        ]
      }
    },
    {
      "type": "Feature",
      "properties": {
        "norad_id": 30071,
        "name": "FENGYUN 1C DEB",
        "group": "fengyun-1c-debris",
        "lat": 31.854436815223423,
        "lon": -86.37805310540126,
        "alt_km": 696.6664882661844,
        "timestamp": "2025-12-14T20:40:32.045269+00:00",
        "meta_object_name": "FENGYUN 1C DEB",
        "meta_object_id": "1999-025PY",
        "meta_epoch": "2025-12-14T05:23:05.580096",
        "meta_mean_motion": 14.52185668,
        "meta_eccentricity": 0.00391747,
        "meta_inclination": 98.6582,
        "meta_ra_of_asc_node": 87.5325,
        "meta_arg_of_pericenter": 105.2877,
        "meta_mean_anomaly": 313.2212,
        "meta_ephemeris_type": 0,
        "meta_classification_type": "U",
        "meta_norad_cat_id": 30071,
        "meta_element_set_no": 999,
        "meta_rev_at_epoch": 98248,
        "meta_bstar": 0.002705415,
        "meta_mean_motion_dot": 0.0001105,
        "meta_mean_motion_ddot": 0,
        "tle_line1": "1 30071U 99025PY  25348.22437014  .00011050  00000+0  27054-2 0  9997",
        "tle_line2": "2 30071  98.6582  87.5325 0039174 105.2877 313.2212 14.52185668982486"
      },
      "geometry": {
        "type": "Point",
        "coordinates": [
          -86.37805310540126,
          31.854436815223423
        ]
      }
    },
    {
      "type": "Feature",
      "properties": {
        "norad_id": 30072,
        "name": "FENGYUN 1C DEB",
        "group": "fengyun-1c-debris",
        "lat": 1.0731663157748998,
        "lon": 137.0754061440278,
        "alt_km": 771.8409308349555,
        "timestamp": "2025-12-14T20:40:32.045279+00:00",
        "meta_object_name": "FENGYUN 1C DEB",
        "meta_object_id": "1999-025PZ",
        "meta_epoch": "2025-12-14T07:18:34.061760",
        "meta_mean_motion": 14.3782092,
        "meta_eccentricity": 0.00596631,
        "meta_inclination": 99.0757,
        "meta_ra_of_asc_node": 136.6592,
        "meta_arg_of_pericenter": 267.9394,
        "meta_mean_anomaly": 91.4958,
        "meta_ephemeris_type": 0,
        "meta_classification_type": "U",
        "meta_norad_cat_id": 30072,
        "meta_element_set_no": 999,
        "meta_rev_at_epoch": 97193,
        "meta_bstar": 0.0034415576,
        "meta_mean_motion_dot": 0.00010554,
        "meta_mean_motion_ddot": 0,
        "tle_line1": "1 30072U 99025PZ  25348.30456090  .00010554  00000+0  34416-2 0  9990",
        "tle_line2": "2 30072  99.0757 136.6592 0059663 267.9394  91.4958 14.37820920971933"
      },
      "geometry": {
        "type": "Point",
        "coordinates": [
          137.0754061440278,
          1.0731663157748998
        ]
      }
    }
  ]
}